ORBCOMM FM33            
1 25983U 99065D   25328.68061869  .00001467  00000+0  50177-3 0  9990
2 25983  45.0295 315.6923 0006805 163.1668 196.9408 14.40462460359200
ORBCOMM FM36            
1 25984U 99065E   25328.64418316  .00001552  00000+0  54800-3 0  9992
2 25984  45.0400  50.2304 0001282 356.0284   4.0554 14.38634965357527
ORBCOMM FM35            
1 25985U 99065F   25328.60241610  .00001266  00000+0  46550-3 0  9995
2 25985  45.0401  56.7619 0003702 148.9601 211.1467 14.37547735357867
ORBCOMM FM34            
1 25986U 99065G   25328.56845394  .00001191  00000+0  44107-3 0  9993
2 25986  45.0396  57.3852 0002319  89.1191 270.9923 14.37510769357979
ORBCOMM FM38            
1 33060U 08031A   25328.84844777  .00002511  00000+0  33877-3 0  9992
2 33060  48.4396 269.1882 0004877  10.2255 349.8759 14.82149733938574
ORBCOMM FM41            
1 33061U 08031B   25328.59270610  .00002369  00000+0  32448-3 0  9998
2 33061  48.4435 278.7538 0004189 351.6899 178.5256 14.81705096938012
ORBCOMM FM29            
1 33062U 08031C   25328.63179103  .00002522  00000+0  34254-3 0  9997
2 33062  48.4390 286.1646 0005890 352.4891 177.6044 14.81845419937936
ORBCOMM FM39            
1 33063U 08031D   25328.65700819  .00002156  00000+0  30764-3 0  9999
2 33063  48.4406 312.1253 0007095 324.2127  35.8312 14.80296456937569
